STARLINK-35389          
1 66434U 25259N   25345.33335648 -.00062103  00000+0 -14917-2 0  9997
2 66434  42.9998  55.8522 0001310 267.2304 296.0245 15.40696845  6059
STARLINK-35502          
1 66435U 25259P   25345.33335648 -.00049181  00000+0 -11781-2 0  9995
2 66435  42.9997  55.8224 0000888 270.0342 305.6553 15.40689555  6050
STARLINK-35501          
1 66436U 25259Q   25345.25003472 -.00014722  00000+0 -34621-3 0  9996
2 66436  42.9999  56.2395 0001259 246.0020 251.8974 15.40668549  6044
STARLINK-35474          
1 66437U 25259R   25345.25003472 -.00023317  00000+0 -55309-3 0  9993
2 66437  43.0000  56.2090 0001538 257.4232 252.9168 15.40674528  6044
STARLINK-34681          
1 66438U 25259S   25345.25003472  .00076263  00000+0  18202-2 0  9990
2 66438  43.0001  56.1793 0000846 257.9333 264.8723 15.40609017  5930
STARLINK-35327          
1 66439U 25259T   25345.25003472 -.00023470  00000+0 -55674-3 0  9990
2 66439  42.9998  56.2719 0001104 244.7311 240.7195 15.40676886  6048
STARLINK-35405          
1 66440U 25259U   25345.25003472 -.00001805  00000+0 -36018-4 0  9992
2 66440  43.0002  56.1501 0001432 247.0963 288.1370 15.40653304  6040
STARLINK-35426          
1 66441U 25259V   25345.25003472 -.00026942  00000+0 -64026-3 0  9991
2 66441  43.0002  56.1192 0001243 270.0119 277.6150 15.40686527  6048
STARLINK-34724          
1 66442U 25259W   25345.25003472 -.00250160  00000+0 -61648-2 0  9999
2 66442  43.0003  56.0896 0001137 266.7905 293.3247 15.40772816  6046
STARLINK-35219          
1 66443U 25259X   25345.25003472  .00095498  00000+0  22715-2 0  9991
2 66443  43.0007  56.0591 0000707 269.9591 302.5441 15.40612601  5932
STARLINK-35360          
1 66444U 25259Y   25345.25003472 -.02056831  00000+0 -48595-1 0  9997
2 66444  43.0004  55.9824 0001131 260.1071 343.6208 15.44605226  6044
STARLINK-34698          
1 66445U 25259Z   25345.25003472 -.01555242  00000+0 -39912-1 0  9990
2 66445  43.0006  56.0292 0001584 287.1441 297.2355 15.41772279  5934
