CCSDS_OMM_VERS = 2.0
CREATION_DATE  = 
ORIGINATOR     = 

OBJECT_NAME    = STARLINK-35389
OBJECT_ID      = 2025-259N
CENTER_NAME    = EARTH
REF_FRAME      = TEME
TIME_SYSTEM    = UTC
MEAN_ELEMENT_THEORY = SGP/SGP4

EPOCH          = 2025-12-11T08:00:01.999872
MEAN_MOTION    = 15.40696845
ECCENTRICITY   = .00013109
INCLINATION    = 42.9998
RA_OF_ASC_NODE = 55.8522
ARG_OF_PERICENTER = 267.2304
MEAN_ANOMALY   = 296.0245

EPHEMERIS_TYPE = 0
CLASSIFICATION_TYPE = U
NORAD_CAT_ID   = 66434
ELEMENT_SET_NO = 999
REV_AT_EPOCH   = 605
BSTAR          = -.14916975E-2
MEAN_MOTION_DOT = -.62103E-3
MEAN_MOTION_DDOT = 0

CCSDS_OMM_VERS = 2.0
CREATION_DATE  = 
ORIGINATOR     = 

OBJECT_NAME    = STARLINK-35502
OBJECT_ID      = 2025-259P
CENTER_NAME    = EARTH
REF_FRAME      = TEME
TIME_SYSTEM    = UTC
MEAN_ELEMENT_THEORY = SGP/SGP4

EPOCH          = 2025-12-11T08:00:01.999872
MEAN_MOTION    = 15.40689555
ECCENTRICITY   = .00008886
INCLINATION    = 42.9997
RA_OF_ASC_NODE = 55.8224
ARG_OF_PERICENTER = 270.0342
MEAN_ANOMALY   = 305.6553

EPHEMERIS_TYPE = 0
CLASSIFICATION_TYPE = U
NORAD_CAT_ID   = 66435
ELEMENT_SET_NO = 999
REV_AT_EPOCH   = 605
BSTAR          = -.11781091E-2
MEAN_MOTION_DOT = -.49181E-3
MEAN_MOTION_DDOT = 0

CCSDS_OMM_VERS = 2.0
CREATION_DATE  = 
ORIGINATOR     = 

OBJECT_NAME    = STARLINK-35501
OBJECT_ID      = 2025-259Q
CENTER_NAME    = EARTH
REF_FRAME      = TEME
TIME_SYSTEM    = UTC
MEAN_ELEMENT_THEORY = SGP/SGP4

EPOCH          = 2025-12-11T06:00:02.999808
MEAN_MOTION    = 15.40668549
ECCENTRICITY   = .00012592
INCLINATION    = 42.9999
RA_OF_ASC_NODE = 56.2395
ARG_OF_PERICENTER = 246.0020
MEAN_ANOMALY   = 251.8974

EPHEMERIS_TYPE = 0
CLASSIFICATION_TYPE = U
NORAD_CAT_ID   = 66436
ELEMENT_SET_NO = 999
REV_AT_EPOCH   = 604
BSTAR          = -.34621122E-3
MEAN_MOTION_DOT = -.14722E-3
MEAN_MOTION_DDOT = 0

CCSDS_OMM_VERS = 2.0
CREATION_DATE  = 
ORIGINATOR     = 

OBJECT_NAME    = STARLINK-35474
OBJECT_ID      = 2025-259R
CENTER_NAME    = EARTH
REF_FRAME      = TEME
TIME_SYSTEM    = UTC
MEAN_ELEMENT_THEORY = SGP/SGP4

EPOCH          = 2025-12-11T06:00:02.999808
MEAN_MOTION    = 15.40674528
ECCENTRICITY   = .0001538
INCLINATION    = 43.0000
RA_OF_ASC_NODE = 56.2090
ARG_OF_PERICENTER = 257.4232
MEAN_ANOMALY   = 252.9168

EPHEMERIS_TYPE = 0
CLASSIFICATION_TYPE = U
NORAD_CAT_ID   = 66437
ELEMENT_SET_NO = 999
REV_AT_EPOCH   = 604
BSTAR          = -.5530855E-3
MEAN_MOTION_DOT = -.23317E-3
MEAN_MOTION_DDOT = 0

CCSDS_OMM_VERS = 2.0
CREATION_DATE  = 
ORIGINATOR     = 

OBJECT_NAME    = STARLINK-34681
OBJECT_ID      = 2025-259S
CENTER_NAME    = EARTH
REF_FRAME      = TEME
TIME_SYSTEM    = UTC
MEAN_ELEMENT_THEORY = SGP/SGP4

EPOCH          = 2025-12-11T06:00:02.999808
MEAN_MOTION    = 15.40609017
ECCENTRICITY   = .00008468
INCLINATION    = 43.0001
RA_OF_ASC_NODE = 56.1793
ARG_OF_PERICENTER = 257.9333
MEAN_ANOMALY   = 264.8723

EPHEMERIS_TYPE = 0
CLASSIFICATION_TYPE = U
NORAD_CAT_ID   = 66438
ELEMENT_SET_NO = 999
REV_AT_EPOCH   = 593
BSTAR          = .18202185E-2
MEAN_MOTION_DOT = .76263E-3
MEAN_MOTION_DDOT = 0

CCSDS_OMM_VERS = 2.0
CREATION_DATE  = 
ORIGINATOR     = 

OBJECT_NAME    = STARLINK-35327
OBJECT_ID      = 2025-259T
CENTER_NAME    = EARTH
REF_FRAME      = TEME
TIME_SYSTEM    = UTC
MEAN_ELEMENT_THEORY = SGP/SGP4

EPOCH          = 2025-12-11T06:00:02.999808
MEAN_MOTION    = 15.40676886
ECCENTRICITY   = .00011044
INCLINATION    = 42.9998
RA_OF_ASC_NODE = 56.2719
ARG_OF_PERICENTER = 244.7311
MEAN_ANOMALY   = 240.7195

EPHEMERIS_TYPE = 0
CLASSIFICATION_TYPE = U
NORAD_CAT_ID   = 66439
ELEMENT_SET_NO = 999
REV_AT_EPOCH   = 604
BSTAR          = -.55674495E-3
MEAN_MOTION_DOT = -.2347E-3
MEAN_MOTION_DDOT = 0

CCSDS_OMM_VERS = 2.0
CREATION_DATE  = 
ORIGINATOR     = 

OBJECT_NAME    = STARLINK-35405
OBJECT_ID      = 2025-259U
CENTER_NAME    = EARTH
REF_FRAME      = TEME
TIME_SYSTEM    = UTC
MEAN_ELEMENT_THEORY = SGP/SGP4

EPOCH          = 2025-12-11T06:00:02.999808
MEAN_MOTION    = 15.40653304
ECCENTRICITY   = .00014321
INCLINATION    = 43.0002
RA_OF_ASC_NODE = 56.1501
ARG_OF_PERICENTER = 247.0963
MEAN_ANOMALY   = 288.1370

EPHEMERIS_TYPE = 0
CLASSIFICATION_TYPE = U
NORAD_CAT_ID   = 66440
ELEMENT_SET_NO = 999
REV_AT_EPOCH   = 604
BSTAR          = -.36018446E-4
MEAN_MOTION_DOT = -.1805E-4
MEAN_MOTION_DDOT = 0

CCSDS_OMM_VERS = 2.0
CREATION_DATE  = 
ORIGINATOR     = 

OBJECT_NAME    = STARLINK-35426
OBJECT_ID      = 2025-259V
CENTER_NAME    = EARTH
REF_FRAME      = TEME
TIME_SYSTEM    = UTC
MEAN_ELEMENT_THEORY = SGP/SGP4

EPOCH          = 2025-12-11T06:00:02.999808
MEAN_MOTION    = 15.40686527
ECCENTRICITY   = .00012434
INCLINATION    = 43.0002
RA_OF_ASC_NODE = 56.1192
ARG_OF_PERICENTER = 270.0119
MEAN_ANOMALY   = 277.6150

EPHEMERIS_TYPE = 0
CLASSIFICATION_TYPE = U
NORAD_CAT_ID   = 66441
ELEMENT_SET_NO = 999
REV_AT_EPOCH   = 604
BSTAR          = -.64026347E-3
MEAN_MOTION_DOT = -.26942E-3
MEAN_MOTION_DDOT = 0

CCSDS_OMM_VERS = 2.0
CREATION_DATE  = 
ORIGINATOR     = 

OBJECT_NAME    = STARLINK-34724
OBJECT_ID      = 2025-259W
CENTER_NAME    = EARTH
REF_FRAME      = TEME
TIME_SYSTEM    = UTC
MEAN_ELEMENT_THEORY = SGP/SGP4

EPOCH          = 2025-12-11T06:00:02.999808
MEAN_MOTION    = 15.40772816
ECCENTRICITY   = .00011378
INCLINATION    = 43.0003
RA_OF_ASC_NODE = 56.0896
ARG_OF_PERICENTER = 266.7905
MEAN_ANOMALY   = 293.3247

EPHEMERIS_TYPE = 0
CLASSIFICATION_TYPE = U
NORAD_CAT_ID   = 66442
ELEMENT_SET_NO = 999
REV_AT_EPOCH   = 604
BSTAR          = -.61647624E-2
MEAN_MOTION_DOT = -.25016E-2
MEAN_MOTION_DDOT = 0

CCSDS_OMM_VERS = 2.0
CREATION_DATE  = 
ORIGINATOR     = 

OBJECT_NAME    = STARLINK-35219
OBJECT_ID      = 2025-259X
CENTER_NAME    = EARTH
REF_FRAME      = TEME
TIME_SYSTEM    = UTC
MEAN_ELEMENT_THEORY = SGP/SGP4

EPOCH          = 2025-12-11T06:00:02.999808
MEAN_MOTION    = 15.40612601
ECCENTRICITY   = .00007071
INCLINATION    = 43.0007
RA_OF_ASC_NODE = 56.0591
ARG_OF_PERICENTER = 269.9591
MEAN_ANOMALY   = 302.5441

EPHEMERIS_TYPE = 0
CLASSIFICATION_TYPE = U
NORAD_CAT_ID   = 66443
ELEMENT_SET_NO = 999
REV_AT_EPOCH   = 593
BSTAR          = .22714588E-2
MEAN_MOTION_DOT = .95498E-3
MEAN_MOTION_DDOT = 0

CCSDS_OMM_VERS = 2.0
CREATION_DATE  = 
ORIGINATOR     = 

OBJECT_NAME    = STARLINK-35360
OBJECT_ID      = 2025-259Y
CENTER_NAME    = EARTH
REF_FRAME      = TEME
TIME_SYSTEM    = UTC
MEAN_ELEMENT_THEORY = SGP/SGP4

EPOCH          = 2025-12-11T06:00:02.999808
MEAN_MOTION    = 15.44605226
ECCENTRICITY   = .00011315
INCLINATION    = 43.0004
RA_OF_ASC_NODE = 55.9824
ARG_OF_PERICENTER = 260.1071
MEAN_ANOMALY   = 343.6208

EPHEMERIS_TYPE = 0
CLASSIFICATION_TYPE = U
NORAD_CAT_ID   = 66444
ELEMENT_SET_NO = 999
REV_AT_EPOCH   = 604
BSTAR          = -.48594654E-1
MEAN_MOTION_DOT = -.2056831E-1
MEAN_MOTION_DDOT = 0

CCSDS_OMM_VERS = 2.0
CREATION_DATE  = 
ORIGINATOR     = 

OBJECT_NAME    = STARLINK-34698
OBJECT_ID      = 2025-259Z
CENTER_NAME    = EARTH
REF_FRAME      = TEME
TIME_SYSTEM    = UTC
MEAN_ELEMENT_THEORY = SGP/SGP4

EPOCH          = 2025-12-11T06:00:02.999808
MEAN_MOTION    = 15.41772279
ECCENTRICITY   = .00015848
INCLINATION    = 43.0006
RA_OF_ASC_NODE = 56.0292
ARG_OF_PERICENTER = 287.1441
MEAN_ANOMALY   = 297.2355

EPHEMERIS_TYPE = 0
CLASSIFICATION_TYPE = U
NORAD_CAT_ID   = 66445
ELEMENT_SET_NO = 999
REV_AT_EPOCH   = 593
BSTAR          = -.39911668E-1
MEAN_MOTION_DOT = -.1555242E-1
MEAN_MOTION_DDOT = 0

